{
  "type": "FeatureCollection",
  "features": [
    {
      "type": "Feature",
      "properties": {
        "norad_id": 43783,
        "name": "KAZSTSAT",
        "group": "resource",
        "lat": -50.928725330673316,
        "lon": -160.93237517032432,
        "alt_km": 574.3945035371726,
        "timestamp": "2025-12-19T10:50:00.849430+00:00",
        "meta_object_name": "KAZSTSAT",
        "meta_object_id": "2018-099AB",
        "meta_epoch": "2025-12-18T14:35:01.050720",
        "meta_mean_motion": 14.99363181,
        "meta_eccentricity": 0.00059313,
        "meta_inclination": 97.4537,
        "meta_ra_of_asc_node": 27.5404,
        "meta_arg_of_pericenter": 304.033,
        "meta_mean_anomaly": 56.033,
        "meta_ephemeris_type": 0,
        "meta_classification_type": "U",
        "meta_norad_cat_id": 43783,
        "meta_element_set_no": 999,
        "meta_rev_at_epoch": 38424,
        "meta_bstar": 3.4281152e-05,
        "meta_mean_motion_dot": 3.64e-06,
        "meta_mean_motion_ddot": 0,
        "tle_line1": "1 43783U 18099AB  25352.60765105  .00000364  00000+0  34281-4 0  9993",
        "tle_line2": "2 43783  97.4537  27.5404 0005931 304.0330  56.0330 14.99363181384248"
      },
      "geometry": {
        "type": "Point",
        "coordinates": [
          -160.93237517032432,
          -50.928725330673316
        ]
      }
    },
    {
      "type": "Feature",
      "properties": {
        "norad_id": 43831,
        "name": "SAUDISAT 5A",
        "group": "resource",
        "lat": -19.672244395771177,
        "lon": -129.126185284383,
        "alt_km": 500.24349641042045,
        "timestamp": "2025-12-19T10:50:00.849440+00:00",
        "meta_object_name": "SAUDISAT 5A",
        "meta_object_id": "2018-102A",
        "meta_epoch": "2025-12-18T22:56:36.626208",
        "meta_mean_motion": 15.25731299,
        "meta_eccentricity": 0.00114869,
        "meta_inclination": 97.335,
        "meta_ra_of_asc_node": 53.0274,
        "meta_arg_of_pericenter": 57.07,
        "meta_mean_anomaly": 303.1642,
        "meta_ephemeris_type": 0,
        "meta_classification_type": "U",
        "meta_norad_cat_id": 43831,
        "meta_element_set_no": 999,
        "meta_rev_at_epoch": 38817,
        "meta_bstar": 0.00019484559,
        "meta_mean_motion_dot": 4.906e-05,
        "meta_mean_motion_ddot": 0,
        "tle_line1": "1 43831U 18102A   25352.95597947  .00004906  00000+0  19485-3 0  9991",
        "tle_line2": "2 43831  97.3350  53.0274 0011486  57.0700 303.1642 15.25731299388178"
      },
      "geometry": {
        "type": "Point",
        "coordinates": [
          -129.126185284383,
          -19.672244395771177
        ]
      }
    },
    {
      "type": "Feature",
      "properties": {
        "norad_id": 43833,
        "name": "SAUDISAT 5B",
        "group": "resource",
        "lat": -77.86651238111438,
        "lon": -160.6016619174533,
        "alt_km": 502.6263596107474,
        "timestamp": "2025-12-19T10:50:00.849449+00:00",
        "meta_object_name": "SAUDISAT 5B",
        "meta_object_id": "2018-102C",
        "meta_epoch": "2025-12-18T22:40:51.267648",
        "meta_mean_motion": 15.26080551,
        "meta_eccentricity": 0.00122287,
        "meta_inclination": 97.3445,
        "meta_ra_of_asc_node": 55.7664,
        "meta_arg_of_pericenter": 59.3191,
        "meta_mean_anomaly": 300.9251,
        "meta_ephemeris_type": 0,
        "meta_classification_type": "U",
        "meta_norad_cat_id": 43833,
        "meta_element_set_no": 999,
        "meta_rev_at_epoch": 38828,
        "meta_bstar": 0.00019120607,
        "meta_mean_motion_dot": 4.865e-05,
        "meta_mean_motion_ddot": 0,
        "tle_line1": "1 43833U 18102C   25352.94503782  .00004865  00000+0  19121-3 0  9997",
        "tle_line2": "2 43833  97.3445  55.7664 0012228  59.3191 300.9251 15.26080551388283"
      },
      "geometry": {
        "type": "Point",
        "coordinates": [
          -160.6016619174533,
          -77.86651238111438
        ]
      }
    },
    {
      "type": "Feature",
      "properties": {
        "norad_id": 44622,
        "name": "GAOFEN-10R",
        "group": "resource",
        "lat": -59.6215395428996,
        "lon": 107.05115337302844,
        "alt_km": 631.7059270312639,
        "timestamp": "2025-12-19T10:50:00.849460+00:00",
        "meta_object_name": "GAOFEN-10R",
        "meta_object_id": "2019-066A",
        "meta_epoch": "2025-12-19T00:02:05.043264",
        "meta_mean_motion": 14.82812693,
        "meta_eccentricity": 0.0007466,
        "meta_inclination": 98.0286,
        "meta_ra_of_asc_node": 300.5322,
        "meta_arg_of_pericenter": 23.8659,
        "meta_mean_anomaly": 336.2898,
        "meta_ephemeris_type": 0,
        "meta_classification_type": "U",
        "meta_norad_cat_id": 44622,
        "meta_element_set_no": 999,
        "meta_rev_at_epoch": 33567,
        "meta_bstar": 0.00015792342,
        "meta_mean_motion_dot": 1.223e-05,
        "meta_mean_motion_ddot": 0,
        "tle_line1": "1 44622U 19066A   25353.00144726  .00001223  00000+0  15792-3 0  9996",
        "tle_line2": "2 44622  98.0286 300.5322 0007466  23.8659 336.2898 14.82812693335671"
      },
      "geometry": {
        "type": "Point",
        "coordinates": [
          107.05115337302844,
          -59.6215395428996
        ]
      }
    },
    {
      "type": "Feature",
      "properties": {
        "norad_id": 44804,
        "name": "CARTOSAT-3",
        "group": "resource",
        "lat": -21.325625069410794,
        "lon": -129.9819375969495,
        "alt_km": 520.9347475621826,
        "timestamp": "2025-12-19T10:50:00.849470+00:00",
        "meta_object_name": "CARTOSAT-3",
        "meta_object_id": "2019-081A",
        "meta_epoch": "2025-12-18T22:53:07.374048",
        "meta_mean_motion": 15.1920267,
        "meta_eccentricity": 0.00140314,
        "meta_inclination": 97.4585,
        "meta_ra_of_asc_node": 52.4582,
        "meta_arg_of_pericenter": 63.9396,
        "meta_mean_anomaly": 296.3281,
        "meta_ephemeris_type": 0,
        "meta_classification_type": "U",
        "meta_norad_cat_id": 44804,
        "meta_element_set_no": 999,
        "meta_rev_at_epoch": 33610,
        "meta_bstar": 0.00016641685,
        "meta_mean_motion_dot": 3.442e-05,
        "meta_mean_motion_ddot": 0,
        "tle_line1": "1 44804U 19081A   25352.95355757  .00003442  00000+0  16642-3 0  9996",
        "tle_line2": "2 44804  97.4585  52.4582 0014031  63.9396 296.3281 15.19202670336108"
      },
      "geometry": {
        "type": "Point",
        "coordinates": [
          -129.9819375969495,
          -21.325625069410794
        ]
      }
    },
    {
      "type": "Feature",
      "properties": {
        "norad_id": 44819,
        "name": "GAOFEN-12 01",
        "group": "resource",
        "lat": 80.2910603914199,
        "lon": -127.07809584279697,
        "alt_km": 620.119313797707,
        "timestamp": "2025-12-19T10:50:00.849480+00:00",
        "meta_object_name": "GAOFEN-12 01",
        "meta_object_id": "2019-082A",
        "meta_epoch": "2025-12-18T23:02:57.719328",
        "meta_mean_motion": 14.80664475,
        "meta_eccentricity": 0.00017182,
        "meta_inclination": 97.8124,
        "meta_ra_of_asc_node": 359.0781,
        "meta_arg_of_pericenter": 201.4078,
        "meta_mean_anomaly": 158.7063,
        "meta_ephemeris_type": 0,
        "meta_classification_type": "U",
        "meta_norad_cat_id": 44819,
        "meta_element_set_no": 999,
        "meta_rev_at_epoch": 32742,
        "meta_bstar": 5.7341503e-05,
        "meta_mean_motion_dot": 3.9e-06,
        "meta_mean_motion_ddot": 0,
        "tle_line1": "1 44819U 19082A   25352.96039027  .00000390  00000+0  57342-4 0  9995",
        "tle_line2": "2 44819  97.8124 359.0781 0001718 201.4078 158.7063 14.80664475327424"
      },
      "geometry": {
        "type": "Point",
        "coordinates": [
          -127.07809584279697,
          80.2910603914199
        ]
      }
    },
    {
      "type": "Feature",
      "properties": {
        "norad_id": 44873,
        "name": "CSG-1",
        "group": "resource",
        "lat": -61.81172402928458,
        "lon": -20.303067832834405,
        "alt_km": 630.7026937252176,
        "timestamp": "2025-12-19T10:50:00.849490+00:00",
        "meta_object_name": "CSG-1",
        "meta_object_id": "2019-092A",
        "meta_epoch": "2025-12-18T22:23:58.831584",
        "meta_mean_motion": 14.8214854,
        "meta_eccentricity": 0.00014941,
        "meta_inclination": 97.8803,
        "meta_ra_of_asc_node": 174.1642,
        "meta_arg_of_pericenter": 86.2334,
        "meta_mean_anomaly": 273.905,
        "meta_ephemeris_type": 0,
        "meta_classification_type": "U",
        "meta_norad_cat_id": 44873,
        "meta_element_set_no": 999,
        "meta_rev_at_epoch": 32477,
        "meta_bstar": 6.2751795e-05,
        "meta_mean_motion_dot": 4.47e-06,
        "meta_mean_motion_ddot": 0,
        "tle_line1": "1 44873U 19092A   25352.93331981  .00000447  00000+0  62752-4 0  9991",
        "tle_line2": "2 44873  97.8803 174.1642 0001494  86.2334 273.9050 14.82148540324778"
      },
      "geometry": {
        "type": "Point",
        "coordinates": [
          -20.303067832834405,
          -61.81172402928458
        ]
      }
    }
  ]
}